NORAD_CAT_ID,OBJECT_NAME,OBJECT_TYPE,EPOCH,MEAN_MOTION,ECCENTRICITY,INCLINATION,RA_OF_ASC_NODE,ARG_OF_PERICENTER,MEAN_ANOMALY,BSTAR,MEAN_MOTION_DOT,MEAN_MOTION_DDOT,TLE_LINE0,TLE_LINE1,TLE_LINE2,SEMIMAJOR_AXIS,PERIOD,APOGEE,PERIGEE,DECAYED
55964.0,STARLINK-5895,PAYLOAD,2023-11-13 12:00:04,14.96712997,0.0002315,70.0016,238.0485,280.1887,79.9011,-1.8911e-05,-3.08e-06,0.0,0 STARLINK-5895,1 55964U 23037BC  23317.50005397 -.00000308  00000-0 -18911-4 0  9996,2 55964  70.0016 238.0485 0002315 280.1887  79.9011 14.96712997 37631,6955.198,96.211,578.673,575.453,0.0
55964.0,STARLINK-5895,PAYLOAD,2023-11-14 04:02:26,14.96721629,0.0002966,70.0,236.3674,272.779,87.3028,7.8507e-05,8.07e-06,0.0,0 STARLINK-5895,1 55964U 23037BC  23318.16836186  .00000807  00000-0  78507-4 0  9996,2 55964  70.0000 236.3674 0002966 272.7790  87.3028 14.96721629 38079,6955.171,96.21,579.099,574.973,0.0
55964.0,STARLINK-5895,PAYLOAD,2023-11-14 12:03:37,14.96742602,0.00024,70.0008,235.5262,282.874,77.215,-0.00053329,-6.194e-05,0.0,0 STARLINK-5895,1 55964U 23037BC  23318.50252289 -.00006194  00000-0 -53329-3 0  9991,2 55964  70.0008 235.5262 0002400 282.8740  77.2150 14.96742602 37786,6955.106,96.209,578.64,575.302,0.0
55964.0,STARLINK-5895,PAYLOAD,2023-11-15 02:29:47,14.96699074,0.0001933,70.003,234.0139,270.9077,89.186,0.00015145,1.642e-05,0.0,0 STARLINK-5895,1 55964U 23037BC  23319.10402515  .00001642  00000-0  15145-3 0  9992,2 55964  70.0030 234.0139 0001933 270.9077  89.1860 14.96699074 38212,6955.241,96.212,578.45,575.762,0.0
55964.0,STARLINK-5895,PAYLOAD,2023-11-15 04:06:01,14.96706578,0.0002245,70.0013,233.8459,268.7373,91.3528,-3.583e-05,-5.01e-06,0.0,0 STARLINK-5895,1 55964U 23037BC  23319.17085565 -.00000501  00000-0 -35830-4 0  9990,2 55964  70.0013 233.8459 0002245 268.7373  91.3528 14.96706578 37882,6955.218,96.211,578.644,575.521,0.0
55964.0,STARLINK-5895,PAYLOAD,2023-11-16 02:33:23,14.96687787,0.0002031,70.0021,231.4937,269.6452,90.4474,-0.00032693,-3.828e-05,0.0,0 STARLINK-5895,1 55964U 23037BC  23320.10652189 -.00003828  00000-0 -32693-3 0  9995,2 55964  70.0021 231.4937 0002031 269.6452  90.4474 14.96687787 38361,6955.276,96.212,578.554,575.728,0.0
55964.0,STARLINK-5895,PAYLOAD,2023-11-16 04:09:35,14.96714614,0.0002517,70.002,231.3256,270.0375,90.0495,-1.494e-05,-2.62e-06,0.0,0 STARLINK-5895,1 55964U 23037BC  23320.17333043 -.00000262  00000-0 -14940-4 0  9992,2 55964  70.0020 231.3256 0002517 270.0375  90.0495 14.96714614 38372,6955.193,96.211,578.808,575.307,0.0
55964.0,STARLINK-5895,PAYLOAD,2023-11-17 04:13:09,14.96744047,0.000274,70.0014,228.8047,280.8773,79.2077,-0.00041498,-4.841e-05,0.0,0 STARLINK-5895,1 55964U 23037BC  23321.17580360 -.00004841  00000-0 -41498-3 0  9993,2 55964  70.0014 228.8047 0002740 280.8773  79.2077 14.96744047 38528,6955.102,96.209,578.872,575.061,0.0
55964.0,STARLINK-5895,PAYLOAD,2023-11-17 17:03:04,14.96772978,0.0002687,70.0012,227.461,275.0327,85.0524,-0.0009662,-0.00011149,0.0,0 STARLINK-5895,1 55964U 23037BC  23321.71046983 -.00011149  00000-0 -96620-3 0  9997,2 55964  70.0012 227.4610 0002687 275.0327  85.0524 14.96772978 38603,6955.012,96.207,578.746,575.008,0.0
55964.0,STARLINK-5895,PAYLOAD,2023-11-18 04:16:44,14.9672511,0.0002043,70.0017,226.2842,286.8612,73.2322,-0.00028495,-3.352e-05,0.0,0 STARLINK-5895,1 55964U 23037BC  23322.17829419 -.00003352  00000-0 -28495-3 0  9993,2 55964  70.0017 226.2842 0002043 286.8612  73.2322 14.96725110 38673,6955.16,96.21,578.446,575.604,0.0
55964.0,STARLINK-5895,PAYLOAD,2023-11-18 10:41:41,14.96731251,0.0002064,70.0028,225.6109,269.1796,90.9126,-0.00031071,-3.647e-05,0.0,0 STARLINK-5895,1 55964U 23037BC  23322.44561582 -.00003647  00000-0 -31071-3 0  9998,2 55964  70.0028 225.6109 0002064 269.1796  90.9126 14.96731251 38372,6955.141,96.21,578.442,575.571,0.0
55964.0,STARLINK-5895,PAYLOAD,2023-11-18 17:06:38,14.96714899,0.0002543,70.0016,224.9383,274.6148,85.472,-6.2652e-06,-1.63e-06,0.0,0 STARLINK-5895,1 55964U 23037BC  23322.71294560 -.00000163  00000-0 -62652-5 0  9998,2 55964  70.0016 224.9383 0002543 274.6148  85.4720 14.96714899 38412,6955.192,96.211,578.826,575.288,0.0
55964.0,STARLINK-5895,PAYLOAD,2023-11-19 02:44:06,14.96678109,0.0002577,70.0015,223.9294,263.0617,97.0248,-0.00044125,-5.133e-05,0.0,0 STARLINK-5895,1 55964U 23037BC  23323.11396790 -.00005133  00000-0 -44125-3 0  9996,2 55964  70.0015 223.9294 0002577 263.0617  97.0248 14.96678109 38812,6955.306,96.213,578.963,575.379,0.0
55964.0,STARLINK-5895,PAYLOAD,2023-11-19 10:45:15,14.96714626,0.0002452,70.0014,223.0891,274.023,86.0647,-1.2529e-05,-2.35e-06,0.0,0 STARLINK-5895,1 55964U 23037BC  23323.44809730 -.00000235  00000-0 -12529-4 0  9997,2 55964  70.0014 223.0891 0002452 274.0230  86.0647 14.96714626 38861,6955.193,96.211,578.763,575.352,0.0
55964.0,STARLINK-5895,PAYLOAD,2023-11-19 21:58:55,14.96706963,0.0002422,70.0009,221.9134,261.6978,98.3906,-2.3465e-05,-3.6e-06,0.0,0 STARLINK-5895,1 55964U 23037BC  23323.91592498 -.00000360  00000-0 -23465-4 0  9999,2 55964  70.0009 221.9134 0002422 261.6978  98.3906 14.96706963 38599,6955.217,96.211,578.766,575.397,0.0
55964.0,STARLINK-5895,PAYLOAD,2023-11-20 01:11:23,14.96718055,0.0002661,70.0002,221.5764,265.4046,94.6808,0.00010247,1.082e-05,0.0,0 STARLINK-5895,1 55964U 23037BC  23324.04957872  .00001082  00000-0  10247-3 0  9998,2 55964  70.0002 221.5764 0002661 265.4046  94.6808 14.96718055 38955,6955.182,96.211,578.898,575.196,0.0
55964.0,STARLINK-5895,PAYLOAD,2023-11-20 10:48:49,14.96715863,0.0002709,70.0003,220.5683,270.9354,89.1494,1.3613e-05,6.4e-07,0.0,0 STARLINK-5895,1 55964U 23037BC  23324.45057412  .00000064  00000-0  13613-4 0  9994,2 55964  70.0003 220.5683 0002709 270.9354  89.1494 14.96715863 38674,6955.189,96.211,578.938,575.17,0.0
55964.0,STARLINK-5895,PAYLOAD,2023-11-20 22:02:29,14.96716785,0.0002752,70.0,219.3924,269.3445,90.7398,-4.0181e-06,-1.38e-06,0.0,0 STARLINK-5895,1 55964U 23037BC  23324.91839730 -.00000138  00000-0 -40181-5 0  9991,2 55964  70.0000 219.3924 0002752 269.3445  90.7398 14.96716785 38749,6955.186,96.211,578.965,575.137,0.0
55964.0,STARLINK-5895,PAYLOAD,2023-11-21 02:51:12,14.96718827,0.0002493,70.0005,218.888,269.4695,90.6177,1.6862e-05,1.01e-06,0.0,0 STARLINK-5895,1 55964U 23037BC  23325.11889162  .00000101  00000-0  16862-4 0  9994,2 55964  70.0005 218.8880 0002493 269.4695  90.6177 14.96718827 39114,6955.18,96.21,578.779,575.311,0.0
55964.0,STARLINK-5895,PAYLOAD,2023-11-21 10:52:23,14.9671642,0.0002347,70.0009,218.0478,278.9111,81.1782,-4.1253e-05,-5.64e-06,0.0,0 STARLINK-5895,1 55964U 23037BC  23325.45305506 -.00000564  00000-0 -41253-4 0  9993,2 55964  70.0009 218.0478 0002347 278.9111  81.1782 14.96716420 38820,6955.187,96.211,578.685,575.42,0.0
55964.0,STARLINK-5895,PAYLOAD,2023-11-21 20:29:49,14.9671316,0.000276,70.0,217.0388,270.7293,89.3549,-1.8148e-05,-2.99e-06,0.0,0 STARLINK-5895,1 55964U 23037BC  23325.85404702 -.00000299  00000-0 -18148-4 0  9997,2 55964  70.0000 217.0388 0002760 270.7293  89.3549 14.96713160 38885,6955.197,96.211,578.982,575.143,0.0
55964.0,STARLINK-5895,PAYLOAD,2023-11-22 02:54:46,14.96720349,0.0002632,69.9998,216.3672,275.0959,84.9899,3.3574e-05,2.93e-06,0.0,0 STARLINK-5895,1 55964U 23037BC  23326.12136957  .00000293  00000-0  33574-4 0  9994,2 55964  69.9998 216.3672 0002632 275.0959  84.9899 14.96720349 39260,6955.175,96.21,578.871,575.209,0.0
55964.0,STARLINK-5895,PAYLOAD,2023-11-22 20:33:23,14.96718902,0.0002649,69.9999,214.5177,271.325,88.7604,2.6416e-05,2.11e-06,0.0,0 STARLINK-5895,1 55964U 23037BC  23326.85652067  .00000211  00000-0  26416-4 0  9996,2 55964  69.9999 214.5177 0002649 271.3250  88.7604 14.96718902 39035,6955.18,96.21,578.887,575.202,0.0
55964.0,STARLINK-5895,PAYLOAD,2023-11-23 02:58:20,14.96718999,0.0002257,70.0007,213.8469,253.9579,106.1331,0.00011552,1.231e-05,0.0,0 STARLINK-5895,1 55964U 23037BC  23327.12384534  .00001231  00000-0  11552-3 0  9995,2 55964  70.0007 213.8469 0002257 253.9579 106.1331 14.96718999 39419,6955.179,96.21,578.614,575.474,0.0
55964.0,STARLINK-5895,PAYLOAD,2023-11-23 19:00:44,14.96703462,0.0002784,69.9999,212.166,267.7085,92.3754,-7.0906e-05,-9.03e-06,0.0,0 STARLINK-5895,1 55964U 23037BC  23327.79218057 -.00000903  00000-0 -70906-4 0  9990,2 55964  69.9999 212.1660 0002784 267.7085  92.3754 14.96703462 39516,6955.227,96.211,579.029,575.156,0.0
55964.0,STARLINK-5895,PAYLOAD,2023-11-23 22:13:13,14.96704917,0.0002542,69.9996,211.8296,263.8778,96.2091,-0.00013158,-1.597e-05,0.0,0 STARLINK-5895,1 55964U 23037BC  23327.92584608 -.00001597  00000-0 -13158-3 0  9998,2 55964  69.9996 211.8296 0002542 263.8778  96.2091 14.96704917 39199,6955.223,96.211,578.856,575.32,0.0
55964.0,STARLINK-5895,PAYLOAD,2023-11-24 03:01:56,14.96703249,0.000267,69.9993,211.3255,259.1353,100.9504,-8.0077e-05,-1.008e-05,0.0,0 STARLINK-5895,1 55964U 23037BC  23328.12634275 -.00001008  00000-0 -80077-4 0  9999,2 55964  69.9993 211.3255 0002670 259.1353 100.9504 14.96703249 39228,6955.228,96.211,578.95,575.236,0.0
55964.0,STARLINK-5895,PAYLOAD,2023-11-24 19:04:18,14.96714785,0.0002671,69.9995,209.6448,265.8065,94.2788,-8.3304e-05,-1.045e-05,0.0,0 STARLINK-5895,1 55964U 23037BC  23328.79465773 -.00001045  00000-0 -83304-4 0  9994,2 55964  69.9995 209.6448 0002671 265.8065  94.2788 14.96714785 39663,6955.192,96.211,578.915,575.2,0.0
55964.0,STARLINK-5895,PAYLOAD,2023-11-24 20:40:32,14.96714862,0.0002641,69.9997,209.4768,265.2216,94.8641,-7.7018e-05,-9.73e-06,0.0,0 STARLINK-5895,1 55964U 23037BC  23328.86148963 -.00000973  00000-0 -77018-4 0  9995,2 55964  69.9997 209.4768 0002641 265.2216  94.8641 14.96714862 39331,6955.192,96.211,578.894,575.22,0.0
55964.0,STARLINK-5895,PAYLOAD,2023-11-25 03:05:29,14.96722115,0.0002676,69.9995,208.8044,258.3676,101.7182,1.3548e-05,6.4e-07,0.0,0 STARLINK-5895,1 55964U 23037BC  23329.12880939  .00000064  00000-0  13548-4 0  9998,2 55964  69.9995 208.8044 0002676 258.3676 101.7182 14.96722115 39710,6955.17,96.21,578.896,575.173,0.0
